STARLINK-34709          
1 64844C 25152C   26118.87131944  .00018665  00000+0  12964-2 0  1188
2 64844  97.5575 334.9011 0002311  82.0312   7.5922 15.05632636    13
STARLINK-34706          
1 64845C 25152D   26118.92687500  .00066212  00000+0  45983-2 0  1187
2 64845  97.5572 334.9301 0002496  85.5466 245.0226 15.05610605    13
STARLINK-34736          
1 64846C 25152E   26118.92618056  .00062250  00000+0  43221-2 0  1189
2 64846  97.5573 335.0055 0001870  92.7070  69.0027 15.05622708    19
STARLINK-34746          
1 64847C 25152F   26118.91506944  .00051003  00000+0  35422-2 0  1189
2 64847  97.5570 334.9901 0001873  87.5654 344.0336 15.05617966    17
STARLINK-34748          
1 64848C 25152G   26118.87687500  .00028326  00000+0  19676-2 0  1188
2 64848  97.5583 334.9836 0000705 104.0419 195.5323 15.05624990    16
STARLINK-34756          
1 64849C 25152H   26118.85743056  .00006004  00000+0  41695-3 0  1182
2 64849  97.5570 334.9451 0001640 105.8537 358.3983 15.05642859    10
STARLINK-34757          
1 64850C 25152J   26118.89979167  .00038442  00000+0  26698-2 0  1188
2 64850  97.5573 334.9472 0002170  92.5234 196.3203 15.05624674    13
STARLINK-34722          
1 64851C 25152K   26118.90604167  .00047556  00000+0  33028-2 0  1187
2 64851  97.5574 334.9284 0002668  90.1345 172.5743 15.05618088    12
STARLINK-34564          
1 64852C 25152L   26118.90465278  .00045381  00000+0  31522-2 0  1187
2 64852  97.5571 334.9673 0002126  94.4473 250.7216 15.05614974    14
STARLINK-34676          
1 64853C 25152M   26118.92618056  .00066051  00000+0  45871-2 0  1183
2 64853  97.5574 334.9410 0002524  88.4129 268.3982 15.05610649    10
STARLINK-34682          
1 64854C 25152N   26118.85604167  .00002913  00000+0  20234-3 0  1188
2 64854  97.5576 334.9872 0001849  87.3262 144.4903 15.05641717    17
STARLINK-34631          
1 64855C 25152P   26118.85812500  .00000829  00000+0  57597-4 0  1188
2 64855  97.5575 334.9146 0002310  90.2011 347.9369 15.05641245    12
STARLINK-34578          
1 64856C 25152Q   26118.86090278  .00006551  00000+0  45504-3 0  1182
2 64856  97.5572 335.0091 0001889  91.4622 196.6874 15.05634216    12
STARLINK-34683          
1 64857C 25152R   26118.85048611  .00003633  00000+0  25231-3 0  1189
2 64857  97.5575 334.9379 0001629  91.0096   5.7339 15.05639285    13
STARLINK-34654          
1 64858C 25152S   26118.92895833  .00048472  00000+0  33664-2 0  1182
2 64858  97.5573 335.0534 0001841  87.5409 194.2729 15.05618976    12
STARLINK-34575          
1 64859C 25152T   26118.89979167  .00047417  00000+0  32927-2 0  1181
2 64859  97.5574 335.0451 0001941  72.9580  80.7606 15.05624682    15
STARLINK-34570          
1 64860C 25152U   26118.86923611  .00022231  00000+0  15441-2 0  1182
2 64860  97.5575 334.8897 0002330  86.7070 306.6369 15.05629708    19
STARLINK-34651          
1 64861C 25152V   26118.92826389  .00067023  00000+0  46542-2 0  1188
2 64861  97.5577 334.9898 0002263  93.4728 334.5512 15.05613939    13
STARLINK-34684          
1 64862C 25152W   26118.91645833  .00058137  00000+0  40374-2 0  1184
2 64862  97.5573 335.0250 0001645  86.8198  52.2835 15.05616917    15
STARLINK-34690          
1 64863C 25152X   26118.90812500  .00048417  00000+0  33627-2 0  1184
2 64863  97.5580 335.0348 0002177  84.7316  54.2291 15.05617680    18
STARLINK-34628          
1 64864C 25152Y   26118.89770833  .00032546  00000+0  22604-2 0  1184
2 64864  97.5572 334.9935 0001788  85.1196 297.4238 15.05626627    11
STARLINK-34544          
1 64865C 25152Z   26118.86229167  .00011680  00000+0  81095-3 0  1187
2 64865  97.5577 334.9759 0001691  66.3409 169.2490 15.05648778    19
STARLINK-34647          
1 64904C 25157A   26118.92687500  .00036750  00000+0  12385-2 0  1182
2 64904  53.1564 112.5872 0001171  95.6862 190.9123 15.30175421    16
STARLINK-34273          
1 64905C 25157B   26118.91576389  .00040065  00000+0  13503-2 0  1181
2 64905  53.1564 112.5215 0000996  91.6331 191.8940 15.30173012    10
STARLINK-34713          
1 64906C 25157C   26118.88868056  .00026098  00000+0  87969-3 0  1181
2 64906  53.1580 112.4765 0001338  91.4944 130.0034 15.30175397    14
STARLINK-34712          
1 64907C 25157D   26118.87062500  .00061175  00000+0  18065-2 0  1186
2 64907  53.1573 112.1595 0000406  95.0689 229.7214 15.34376454    13
STARLINK-34702          
1 64908C 25157E   26118.86368056  .00036234  00000+0  12212-2 0  1187
2 64908  53.1584 112.5083 0001251  93.0560  31.3605 15.30173806    10
STARLINK-34687          
1 64909C 25157F   26118.88729167  .00033302  00000+0  11225-2 0  1180
2 64909  53.1570 112.5823 0000421  91.9371  69.5580 15.30172789    17
STARLINK-34642          
1 64910C 25157G   26118.87340278  .00042168  00000+0  13559-2 0  1185
2 64910  53.1584 112.2949 0001970  74.5205 190.7668 15.31683388    10
STARLINK-34718          
1 64911C 25157H   26118.84979167  .00055564  00000+0  18716-2 0  1182
2 64911  53.1560 112.8751 0001200  97.5240 158.9774 15.30182536    14
STARLINK-34711          
1 64912C 25157J   26118.90951389  .00028887  00000+0  97369-3 0  1186
2 64912  53.1567 112.5287 0001265  94.7150 166.0005 15.30173907    12
STARLINK-34659          
1 64913C 25157K   26118.87062500  .00024627  00000+0  83006-3 0  1182
2 64913  53.1584 112.4889 0001269  92.4574  64.4183 15.30178413    13
STARLINK-34571          
1 64914C 25157L   26118.85465278  .00034779  00000+0  11723-2 0  1185
2 64914  53.1564 112.8723 0001188  89.3694 182.4349 15.30170729    18
STARLINK-34636          
1 64915C 25157M   26118.88937500  .00036593  00000+0  12333-2 0  1185
2 64915  53.1576 112.5272 0001295  91.1594 105.0830 15.30174069    14
STARLINK-34695          
1 64916C 25157N   26118.87826389  .00028136  00000+0  72175-3 0  1182
2 64916  53.1580 106.7943 0001308  88.1553 103.1071 15.38758482    17
STARLINK-34653          
1 64917C 25157P   26118.93659722  .00039271  00000+0  13235-2 0  1188
2 64917  53.1565 112.5685 0001236  97.2732 225.4695 15.30173696    19
STARLINK-34611          
1 64918C 25157Q   26118.85604167  .00050127  00000+0  16893-2 0  1189
2 64918  53.1563 112.9358 0001151  93.7632 150.7772 15.30170152    15
STARLINK-34599          
1 64919C 25157R   26118.87340278  .00046646  00000+0  15720-2 0  1181
2 64919  53.1582 112.4874 0001290  90.9511  69.6070 15.30171567    14
STARLINK-34069          
1 64920C 25157S   26118.91715278  .00035838  00000+0  12079-2 0  1189
2 64920  53.1564 112.5939 0001192  88.4404 162.0266 15.30174350    11
STARLINK-34699          
1 64921C 25157T   26118.87201389  .00033426  00000+0  11267-2 0  1187
2 64921  53.1564 112.7348 0001237  88.4341 308.1375 15.30171128    12
STARLINK-34700          
1 64922C 25157U   26118.88798611  .00033437  00000+0  11270-2 0  1184
2 64922  53.1581 112.4403 0001356  90.4942 144.6275 15.30171926    11
STARLINK-34643          
1 64923C 25157V   26118.88173611  .00051575  00000+0  17380-2 0  1183
2 64923  53.1564 112.7779 0001117  95.2272 308.3890 15.30170879    14
STARLINK-34199          
1 64924C 25157W   26118.85673611  .00739610  00000+0  24587-1 0  1185
2 64924  53.1588 112.4125 0000950  89.7765  60.3574 15.30266711    17
STARLINK-34579          
1 64925C 25157X   26118.92131944  .00041388  00000+0  13950-2 0  1183
2 64925  53.1578 112.3548 0001350  94.7376 289.2113 15.30169572    12
STARLINK-34543          
1 64926C 25157Y   26118.91298611  .00031615  00000+0  10168-2 0  1188
2 64926  53.1567 112.6614 0001289  91.3854 109.0395 15.31680923    13
STARLINK-34661          
1 64927C 25157Z   26118.90048611  .00046055  00000+0  15525-2 0  1187
2 64927  53.1568 112.5452 0001199  99.9249 116.8624 15.30162412    14
STARLINK-34248          
1 64928C 25157AA  26118.85951389  .00041988  00000+0  14152-2 0  1182
2 64928  53.1564 112.8124 0001247  91.2097 224.8392 15.30168288    19
STARLINK-34290          
1 64929C 25157AB  26118.93034722  .00035724  00000+0  12040-2 0  1180
2 64929  53.1575 112.3572 0001338  93.6004 316.8405 15.30173746    11
STARLINK-34220          
1 64930C 25157AC  26118.91784722  .00038269  00000+0  12897-2 0  1189
2 64930  53.1587 112.1529 0001362  97.6837  11.8277 15.30175112    19
STARLINK-34715          
1 64931C 25157AD  26118.90881944  .00044861  00000+0  15119-2 0  1188
2 64931  53.1580 112.3988 0001347  90.3851 230.4852 15.30170036    11
STARLINK-34705          
1 64932C 25158A   26118.90048611  .00024967  00000+0  17339-2 0  1187
2 64932  97.5575 343.4852 0002571  81.4788  72.9291 15.05631728    13
STARLINK-34737          
1 64933C 25158B   26118.86715278 -.00009953  00000+0 -69132-3 0  1182
2 64933  97.5577 343.4794 0002174  87.2276 306.6242 15.05643329    19
STARLINK-34775          
1 64934C 25158C   26118.88451389 -.00003858  00000+0 -26791-3 0  1187
2 64934  97.5575 343.5103 0001853  58.2242  84.6396 15.05647326    11
STARLINK-34726          
1 64935C 25158D   26118.90187500  .00024261  00000+0  16850-2 0  1185
2 64935  97.5578 343.5804 0001822  87.0603 269.8340 15.05630222    13
STARLINK-34529          
1 64936C 25158E   26118.91506944  .00034318  00000+0  23841-2 0  1186
2 64936  97.5576 343.5206 0002445  89.7135 173.7369 15.05613811    18
STARLINK-34743          
1 64937C 25158F   26118.91090278  .00029328  00000+0  20368-2 0  1181
2 64937  97.5572 343.5432 0002377  85.0731 215.7395 15.05628882    11
STARLINK-34730          
1 64938C 25158G   26118.87131944 -.00006106  00000+0 -42409-3 0  1185
2 64938  97.5577 343.5863 0003171  83.5752 212.7829 15.05644803    14
STARLINK-34714          
1 64939C 25158H   26118.89631944  .00025080  00000+0  17420-2 0  1187
2 64939  97.5577 343.6135 0002551  71.6351 345.0425 15.05626272    14
STARLINK-34755          
1 64940C 25158J   26118.89979167  .00024718  00000+0  17546-2 0  1187
2 64940  97.5577 343.9119 0001322  91.3805 234.5809 15.04814471    16
